[{"OBJECT_NAME":"STARLINK-31441","OBJECT_ID":"2024-117A","EPOCH":"2026-03-09T22:11:59.474688","MEAN_MOTION":15.30194429,"ECCENTRICITY":0.00012231,"INCLINATION":53.1617,"RA_OF_ASC_NODE":35.9495,"ARG_OF_PERICENTER":77.0731,"MEAN_ANOMALY":283.0406,"EPHEMERIS_TYPE":0,"CLASSIFICATION_TYPE":"U","NORAD_CAT_ID":60091,"ELEMENT_SET_NO":999,"REV_AT_EPOCH":9692,"BSTAR":3.5308859e-5,"MEAN_MOTION_DOT":6.87e-6,"MEAN_MOTION_DDOT":0},{"OBJECT_NAME":"NUSAT-50 (NANCY ROMAN)","OBJECT_ID":"2024-149AB","EPOCH":"2026-03-09T19:15:16.765632","MEAN_MOTION":15.29713355,"ECCENTRICITY":0.00025229,"INCLINATION":97.3817,"RA_OF_ASC_NODE":150.7693,"ARG_OF_PERICENTER":238.0469,"MEAN_ANOMALY":122.0527,"EPHEMERIS_TYPE":0,"CLASSIFICATION_TYPE":"U","NORAD_CAT_ID":60493,"ELEMENT_SET_NO":999,"REV_AT_EPOCH":8693,"BSTAR":0.0004225155,"MEAN_MOTION_DOT":0.00012094,"MEAN_MOTION_DDOT":0}]
